[
    {
        "Altitude(m)": 607895.854619923,
        "Argument of Periapsis(deg)": 0.0,
        "Eccentricity": 0.0,
        "Inclination(deg)": 60.0,
        "Latitude(deg)": 40.99844044878098,
        "Longitude(deg)": 70.08860877392027,
        "Mean Anomaly(deg)": 130.9091,
        "RAAN(deg)": 20.0,
        "Satellite Name": "Test1 96",
        "Satellite Number": 96,
        "Semi-Major Axis(m)": 6980739.136638005,
        "Time(s)": 0
    },
    {
        "Altitude(m)": 607795.1675066493,
        "Argument of Periapsis(deg)": 0.00010418945913296404,
        "Eccentricity": 0.0,
        "Inclination(deg)": 60.0,
        "Latitude(deg)": 40.53076508347369,
        "Longitude(deg)": 70.58520395505316,
        "Mean Anomaly(deg)": 131.5292061454618,
        "RAAN(deg)": 19.99957995086026,
        "Satellite Name": "Test1 96",
        "Satellite Number": 96,
        "Semi-Major Axis(m)": 6980739.136638005,
        "Time(s)": 10
    }
]